NORAD_CAT_ID,OBJECT_NAME,OBJECT_TYPE,EPOCH,MEAN_MOTION,ECCENTRICITY,INCLINATION,RA_OF_ASC_NODE,ARG_OF_PERICENTER,MEAN_ANOMALY,BSTAR,MEAN_MOTION_DOT,MEAN_MOTION_DDOT,TLE_LINE0,TLE_LINE1,TLE_LINE2,SEMIMAJOR_AXIS,PERIOD,APOGEE,PERIGEE,DECAYED
54209.0,STARLINK-5259,PAYLOAD,2022-11-23 22:00:00,15.73155103,0.0003546,53.2167,10.871,6.2070000000000025,26.4053,0.00049682,0.00069566,0.0,0 STARLINK-5259,1 54209U 22141BE  22327.91667824  .00069566  00000-0  49682-3 0  9993,2 54209  53.2167  10.8710 0003546   6.2070  26.4053 15.73155103  1301,6728.023,91.536,352.274,347.50199999999984,0.0
54209.0,STARLINK-5259,PAYLOAD,2022-11-24 14:00:01,15.7307522,0.0003871,53.216,7.5741,2.9068,207.5449,0.0010520999999999,0.0014892,0.0,0 STARLINK-5259,1 54209U 22141BE  22328.58334491  .00148920  00000-0  10521-2 0  9999,2 54209  53.2160   7.5741 0003871   2.9068 207.5449 15.73075220  1304,6728.251,91.54,352.72,347.511,0.0
54209.0,STARLINK-5259,PAYLOAD,2022-11-24 22:00:00,15.73185,0.0003655,53.2163,5.9226,5.8041,293.4894,0.00071007,0.00100189,0.0,0 STARLINK-5259,1 54209U 22141BE  22328.91667824  .00100189  00000-0  71007-3 0  9997,2 54209  53.2163   5.9226 0003655   5.8041 293.4894 15.73185000  4646,6727.938,91.534,352.26199999999994,347.344,0.0
54209.0,STARLINK-5259,PAYLOAD,2022-11-25 06:00:00,15.73270278,0.0003714,53.2165,4.2735,7.1467,21.0939,-0.00055142,-0.00077569,0.0,0 STARLINK-5259,1 54209U 22141BE  22329.25001157 -.00077569  00000-0 -55142-3 0  9995,2 54209  53.2165   4.2735 0003714   7.1467  21.0939 15.73270278  4702,6727.695,91.529,352.05800000000005,347.061,0.0
54209.0,STARLINK-5259,PAYLOAD,2022-11-25 14:00:01,15.73208764,0.0003978,53.2162,2.6251,6.0172,111.2083,0.00066891,0.00094382,0.0,0 STARLINK-5259,1 54209U 22141BE  22329.58334491  .00094382  00000-0  66891-3 0  9994,2 54209  53.2162   2.6251 0003978   6.0172 111.2083 15.73208764  4755,6727.87,91.533,352.412,347.059,0.0
54209.0,STARLINK-5259,PAYLOAD,2022-11-25 20:00:01,15.73289986,0.000379,53.2163,1.3862,4.9444,89.0074,-0.00042919,-0.00060684,0.0,0 STARLINK-5259,1 54209U 22141BE  22329.83334491 -.00060684  00000-0 -42919-3 0  9997,2 54209  53.2163   1.3862 0003790   4.9444  89.0074 15.73289986  4792,6727.639,91.528,352.05300000000005,346.954,0.0
54209.0,STARLINK-5259,PAYLOAD,2022-11-25 22:00:00,15.73261665,0.0003751,53.2162,0.9734,4.6159,201.5983,-9.1468e-05,-0.0001348,0.0,0 STARLINK-5259,1 54209U 22141BE  22329.91667824 -.00013480  00000-0 -91468-4 0  9991,2 54209  53.2162   0.9734 0003751   4.6159 201.5983 15.73261665  1309,6727.719,91.53,352.108,347.061,0.0
54209.0,STARLINK-5259,PAYLOAD,2022-11-26 06:00:00,15.73294625,0.0003801,53.216,359.3247,3.7947,291.413,-0.00061291,-0.00086154,0.0,0 STARLINK-5259,1 54209U 22141BE  22330.25001157 -.00086154  00000-0 -61291-3 0  9999,2 54209  53.2160 359.3247 0003801   3.7947 291.4130 15.73294625  4855,6727.625,91.528,352.048,346.93300000000005,0.0
54209.0,STARLINK-5259,PAYLOAD,2022-11-26 14:00:01,15.73235477,0.0004068,53.2156,357.676,2.5339,21.6727,7.3582e-06,4.1e-06,0.0,0 STARLINK-5259,1 54209U 22141BE  22330.58334491  .00000410  00000-0  73582-5 0  9992,2 54209  53.2156 357.6760 0004068   2.5339  21.6727 15.73235477  1301,6727.794,91.531,352.396,346.922,0.0
54209.0,STARLINK-5259,PAYLOAD,2022-11-26 22:00:00,15.73199058,0.000379,53.2159,356.0242,3.1809,110.0096,-0.00022886,-0.00032631,0.0,0 STARLINK-5259,1 54209U 22141BE  22330.91667824 -.00032631  00000-0 -22886-3 0  9999,2 54209  53.2159 356.0242 0003790   3.1809 110.0096 15.73199058  4963,6727.898,91.533,352.31300000000016,347.213,0.0
54209.0,STARLINK-5259,PAYLOAD,2022-11-27 14:00:01,15.731609699999998,0.0004159,53.2161,352.727,6.0006,284.9840000000001,0.0002458,0.00033969,0.0,0 STARLINK-5259,1 54209U 22141BE  22331.58334491  .00033969  00000-0  24580-3 0  9990,2 54209  53.2161 352.7270 0004159   6.0006 284.9840 15.73160970  1305,6728.005999999999,91.535,352.67,347.0730000000001,0.0
54209.0,STARLINK-5259,PAYLOAD,2022-11-27 22:00:00,15.73139979,0.0003886,53.2161,351.0756,6.2499,13.6516,0.0002838,0.00039304,0.0,0 STARLINK-5259,1 54209U 22141BE  22331.91667824  .00039304  00000-0  28380-3 0  9997,2 54209  53.2161 351.0756 0003886   6.2499  13.6516 15.73139979  5126,6728.066,91.537,352.546,347.31699999999995,0.0
54209.0,STARLINK-5259,PAYLOAD,2022-11-28 22:00:01,15.73157402,0.0003938,53.2158,346.1271,4.9969,281.6747,0.0007482,0.00105551,0.0,0 STARLINK-5259,1 54209U 22141BE  22332.91668981  .00105551  00000-0  74820-3 0  9991,2 54209  53.2158 346.1271 0003938   4.9969 281.6747 15.73157402  5274,6728.017,91.536,352.531,347.232,0.0
54209.0,STARLINK-5259,PAYLOAD,2022-11-29 14:00:01,15.73218486,0.0004253,53.2159,342.8299,1.8853,102.6704,-0.00042293,-0.00059642,0.0,0 STARLINK-5259,1 54209U 22141BE  22333.58335648 -.00059642  00000-0 -42293-3 0  9996,2 54209  53.2159 342.8299 0004253   1.8853 102.6704 15.73218486  5384,6727.842,91.532,352.569,346.846,0.0
54209.0,STARLINK-5259,PAYLOAD,2022-11-29 22:00:00,15.73150464,0.0004006,53.2158,341.1786,1.2944,192.1298,0.00071018,0.00100062,0.0,0 STARLINK-5259,1 54209U 22141BE  22333.91667824  .00100062  00000-0  71018-3 0  9995,2 54209  53.2158 341.1786 0004006   1.2944 192.1298 15.73150464  1308,6728.036,91.536,352.597,347.206,0.0
54209.0,STARLINK-5259,PAYLOAD,2022-11-30 06:00:00,15.73243642,0.0004166,53.2156,339.531,1.8511,280.4808,-0.00053712,-0.00075516,0.0,0 STARLINK-5259,1 54209U 22141BE  22334.25001157 -.00075516  00000-0 -53712-3 0  9992,2 54209  53.2156 339.5310 0004166   1.8511 280.4808 15.73243642  5485,6727.771,91.531,352.439,346.833,0.0
54209.0,STARLINK-5259,PAYLOAD,2022-11-30 14:00:01,15.73213146,0.0004352,53.2156,337.8803,1.9652,9.3749,-8.057100000000001e-06,-1.757e-05,0.0,0 STARLINK-5259,1 54209U 22141BE  22334.58335648 -.00001757  00000-0 -80571-5 0  9994,2 54209  53.2156 337.8803 0004352   1.9652   9.3749 15.73213146  5542,6727.858,91.532,352.651,346.795,0.0
54209.0,STARLINK-5259,PAYLOAD,2022-11-30 22:00:00,15.73122843,0.0004069,53.2165,336.227,6.1366,94.1065,0.00066526,0.0009351,0.0,0 STARLINK-5259,1 54209U 22141BE  22334.91667824  .00093510  00000-0  66526-3 0  9993,2 54209  53.2165 336.2270 0004069   6.1366  94.1065 15.73122843  5598,6728.115,91.538,352.718,347.242,0.0
54209.0,STARLINK-5259,PAYLOAD,2022-12-01 14:00:01,15.73214792,0.0004236,53.2153,332.9327,358.8888,279.2374,0.00012287,0.00016672,0.0,0 STARLINK-5259,1 54209U 22141BE  22335.58334491  .00016672  00000-0  12287-3 0  9997,2 54209  53.2153 332.9327 0004236 358.8888 279.2374 15.73214792  1302,6727.853,91.532,352.5680000000001,346.86800000000005,0.0
54209.0,STARLINK-5259,PAYLOAD,2022-12-01 20:00:01,15.73211378,0.00041,53.2154,331.6941,356.9224,257.9787,3.5608e-05,4.38e-05,0.0,0 STARLINK-5259,1 54209U 22141BE  22335.83335648  .00004380  00000-0  35608-4 0  9996,2 54209  53.2154 331.6941 0004100 356.9224 257.9787 15.73211378  5733,6727.863,91.533,352.486,346.969,0.0
54209.0,STARLINK-5259,PAYLOAD,2022-12-01 22:00:00,15.73188559,0.0004035,53.2153,331.2815,357.6746,9.4049,0.00038504,0.00053755,0.0,0 STARLINK-5259,1 54209U 22141BE  22335.91667824  .00053755  00000-0  38504-3 0  9996,2 54209  53.2153 331.2815 0004035 357.6746   9.4049 15.73188559  1306,6727.928000000001,91.534,352.5080000000001,347.07800000000015,0.0
54209.0,STARLINK-5259,PAYLOAD,2022-12-02 14:00:01,15.73231929,0.0004234,53.2143,327.9841,1.2245,183.7194,-0.00024661,-0.00035157,0.0,0 STARLINK-5259,1 54209U 22141BE  22336.58334491 -.00035157  00000-0 -24661-3 0  9998,2 54209  53.2143 327.9841 0004234   1.2245 183.7194 15.73231929  1300,6727.804,91.531,352.51800000000014,346.821,0.0
54209.0,STARLINK-5259,PAYLOAD,2022-12-02 22:00:00,15.73174265,0.0004028,53.2145,326.3328,1.3228,272.5811,0.00014793,0.00020172,0.0,0 STARLINK-5259,1 54209U 22141BE  22336.91667824  .00020172  00000-0  14793-3 0  9998,2 54209  53.2145 326.3328 0004028   1.3228 272.5811 15.73174265  5900,6727.969,91.535,352.5440000000001,347.124,0.0
54209.0,STARLINK-5259,PAYLOAD,2022-12-03 14:00:01,15.73190764,0.0004317,53.2145,323.0352,5.237,86.4673,0.00016569,0.00022694,0.0,0 STARLINK-5259,1 54209U 22141BE  22337.58334491  .00022694  00000-0  16569-3 0  9997,2 54209  53.2145 323.0352 0004317   5.2370  86.4673 15.73190764  1303,6727.922,91.534,352.691,346.88199999999995,0.0
54209.0,STARLINK-5259,PAYLOAD,2022-12-03 22:00:00,15.73233777,0.0004067,53.2145,321.3841,5.6309,174.9975,-0.00021882,-0.00031281,0.0,0 STARLINK-5259,1 54209U 22141BE  22337.91667824 -.00031281  00000-0 -21882-3 0  9991,2 54209  53.2145 321.3841 0004067   5.6309 174.9975 15.73233777  6063,6727.799,91.531,352.4,346.92800000000005,0.0
54209.0,STARLINK-5259,PAYLOAD,2022-12-04 14:00:01,15.73187834,0.0004265,53.2137,318.0863,2.9133,355.5813,0.0001728,0.00023694,0.0,0 STARLINK-5259,1 54209U 22141BE  22338.58334491  .00023694  00000-0  17280-3 0  9990,2 54209  53.2137 318.0863 0004265   2.9133 355.5813 15.73187834  1308,6727.93,91.534,352.664,346.925,0.0
54209.0,STARLINK-5259,PAYLOAD,2022-12-04 22:00:00,15.73222044,0.0004008999999999,53.214,316.4352,4.0413,83.3763,0.00040855,0.00057181,0.0,0 STARLINK-5259,1 54209U 22141BE  22338.91667824  .00057181  00000-0  40855-3 0  9998,2 54209  53.2140 316.4352 0004009   4.0413  83.3763 15.73222044  6226,6727.831999999999,91.532,352.395,347.0,0.0
54209.0,STARLINK-5259,PAYLOAD,2022-12-05 06:00:00,15.73256971,0.0004248,53.214,314.7874,1.5627,174.8478,-0.00059323,-0.00083313,0.0,0 STARLINK-5259,1 54209U 22141BE  22339.25001157 -.00083313  00000-0 -59323-3 0  9995,2 54209  53.2140 314.7874 0004248   1.5627 174.8478 15.73256971  6270,6727.733,91.53,352.456,346.74,0.0
54209.0,STARLINK-5259,PAYLOAD,2022-12-05 14:00:01,15.73208279,0.0004227,53.214,313.1369,359.6528,265.7783,0.000216,0.00029822,0.0,0 STARLINK-5259,1 54209U 22141BE  22339.58335648  .00029822  00000-0  21600-3 0  9996,2 54209  53.2140 313.1369 0004227 359.6528 265.7783 15.73208279  6329,6727.871999999999,91.533,352.58,346.89300000000014,0.0
